CCSDS_OMM_VERS = 2.0
CREATION_DATE  = 
ORIGINATOR     = 

OBJECT_NAME    = UNKNOWN
OBJECT_ID      = 
CENTER_NAME    = EARTH
REF_FRAME      = TEME
TIME_SYSTEM    = UTC
MEAN_ELEMENT_THEORY = SGP/SGP4

EPOCH          = 2025-12-15T01:51:24.984864
MEAN_MOTION    = 13.88025475
ECCENTRICITY   = .0061289
INCLINATION    = 82.8058
RA_OF_ASC_NODE = 26.8822
ARG_OF_PERICENTER = 359.2043
MEAN_ANOMALY   = 30.2996

EPHEMERIS_TYPE = 0
CLASSIFICATION_TYPE = U
NORAD_CAT_ID   = 81865
ELEMENT_SET_NO = 999
REV_AT_EPOCH   = 60887
BSTAR          = .11751E-2
MEAN_MOTION_DOT = .1435E-4
MEAN_MOTION_DDOT = 0

CCSDS_OMM_VERS = 2.0
CREATION_DATE  = 
ORIGINATOR     = 

OBJECT_NAME    = UNKNOWN
OBJECT_ID      = 
CENTER_NAME    = EARTH
REF_FRAME      = TEME
TIME_SYSTEM    = UTC
MEAN_ELEMENT_THEORY = SGP/SGP4

EPOCH          = 2025-12-14T04:11:13.197984
MEAN_MOTION    = 13.76696546
ECCENTRICITY   = .0020302
INCLINATION    = 100.0479
RA_OF_ASC_NODE = 331.5612
ARG_OF_PERICENTER = 266.0534
MEAN_ANOMALY   = 93.8293

EPHEMERIS_TYPE = 0
CLASSIFICATION_TYPE = U
NORAD_CAT_ID   = 81893
ELEMENT_SET_NO = 999
REV_AT_EPOCH   = 60427
BSTAR          = .15241E-2
MEAN_MOTION_DOT = .145E-4
MEAN_MOTION_DDOT = 0

CCSDS_OMM_VERS = 2.0
CREATION_DATE  = 
ORIGINATOR     = 

OBJECT_NAME    = UNKNOWN
OBJECT_ID      = 
CENTER_NAME    = EARTH
REF_FRAME      = TEME
TIME_SYSTEM    = UTC
MEAN_ELEMENT_THEORY = SGP/SGP4

EPOCH          = 2025-12-14T05:44:17.484864
MEAN_MOTION    = 13.20198406
ECCENTRICITY   = .018387
INCLINATION    = 102.4167
RA_OF_ASC_NODE = 90.3138
ARG_OF_PERICENTER = 210.4913
MEAN_ANOMALY   = 148.5400

EPHEMERIS_TYPE = 0
CLASSIFICATION_TYPE = U
NORAD_CAT_ID   = 81899
ELEMENT_SET_NO = 999
REV_AT_EPOCH   = 57918
BSTAR          = .43785E-2
MEAN_MOTION_DOT = .1871E-4
MEAN_MOTION_DDOT = 0

CCSDS_OMM_VERS = 2.0
CREATION_DATE  = 
ORIGINATOR     = 

OBJECT_NAME    = UNKNOWN
OBJECT_ID      = 
CENTER_NAME    = EARTH
REF_FRAME      = TEME
TIME_SYSTEM    = UTC
MEAN_ELEMENT_THEORY = SGP/SGP4

EPOCH          = 2025-12-11T13:49:15.347712
MEAN_MOTION    = 13.15182287
ECCENTRICITY   = .0845027
INCLINATION    = 65.7104
RA_OF_ASC_NODE = 55.7774
ARG_OF_PERICENTER = 115.0576
MEAN_ANOMALY   = 254.0563

EPHEMERIS_TYPE = 0
CLASSIFICATION_TYPE = U
NORAD_CAT_ID   = 81921
ELEMENT_SET_NO = 999
REV_AT_EPOCH   = 2563
BSTAR          = .92469E-3
MEAN_MOTION_DOT = .2225E-4
MEAN_MOTION_DDOT = 0

CCSDS_OMM_VERS = 2.0
CREATION_DATE  = 
ORIGINATOR     = 

OBJECT_NAME    = UNKNOWN
OBJECT_ID      = 
CENTER_NAME    = EARTH
REF_FRAME      = TEME
TIME_SYSTEM    = UTC
MEAN_ELEMENT_THEORY = SGP/SGP4

EPOCH          = 2025-12-08T19:10:03.254592
MEAN_MOTION    = 12.42574196
ECCENTRICITY   = .0672157
INCLINATION    = 66.4150
RA_OF_ASC_NODE = 160.2310
ARG_OF_PERICENTER = 353.2715
MEAN_ANOMALY   = 27.8585

EPHEMERIS_TYPE = 0
CLASSIFICATION_TYPE = U
NORAD_CAT_ID   = 81946
ELEMENT_SET_NO = 999
REV_AT_EPOCH   = 54739
BSTAR          = .49968E-3
MEAN_MOTION_DOT = .99E-6
MEAN_MOTION_DDOT = 0

CCSDS_OMM_VERS = 2.0
CREATION_DATE  = 
ORIGINATOR     = 

OBJECT_NAME    = UNKNOWN
OBJECT_ID      = 
CENTER_NAME    = EARTH
REF_FRAME      = TEME
TIME_SYSTEM    = UTC
MEAN_ELEMENT_THEORY = SGP/SGP4

EPOCH          = 2025-12-14T18:37:10.048800
MEAN_MOTION    = 14.52683046
ECCENTRICITY   = .0376031
INCLINATION    = 66.0730
RA_OF_ASC_NODE = 162.5046
ARG_OF_PERICENTER = 141.5331
MEAN_ANOMALY   = 221.3235

EPHEMERIS_TYPE = 0
CLASSIFICATION_TYPE = U
NORAD_CAT_ID   = 81947
ELEMENT_SET_NO = 999
REV_AT_EPOCH   = 63131
BSTAR          = .67798E-3
MEAN_MOTION_DOT = .7048E-4
MEAN_MOTION_DDOT = 0

CCSDS_OMM_VERS = 2.0
CREATION_DATE  = 
ORIGINATOR     = 

OBJECT_NAME    = UNKNOWN
OBJECT_ID      = 
CENTER_NAME    = EARTH
REF_FRAME      = TEME
TIME_SYSTEM    = UTC
MEAN_ELEMENT_THEORY = SGP/SGP4

EPOCH          = 2025-12-13T17:57:52.949664
MEAN_MOTION    = 13.95796394
ECCENTRICITY   = .0029047
INCLINATION    = 66.5847
RA_OF_ASC_NODE = 256.2769
ARG_OF_PERICENTER = 85.5245
MEAN_ANOMALY   = 274.9152

EPHEMERIS_TYPE = 0
CLASSIFICATION_TYPE = U
NORAD_CAT_ID   = 81964
ELEMENT_SET_NO = 999
REV_AT_EPOCH   = 61418
BSTAR          = .308E-3
MEAN_MOTION_DOT = .343E-5
MEAN_MOTION_DDOT = 0

CCSDS_OMM_VERS = 2.0
CREATION_DATE  = 
ORIGINATOR     = 

OBJECT_NAME    = UNKNOWN
OBJECT_ID      = 
CENTER_NAME    = EARTH
REF_FRAME      = TEME
TIME_SYSTEM    = UTC
MEAN_ELEMENT_THEORY = SGP/SGP4

EPOCH          = 2025-12-15T04:47:39.718464
MEAN_MOTION    = 15.11047107
ECCENTRICITY   = .0004893
INCLINATION    = 86.6895
RA_OF_ASC_NODE = 152.3711
ARG_OF_PERICENTER = 149.9199
MEAN_ANOMALY   = 210.2321

EPHEMERIS_TYPE = 0
CLASSIFICATION_TYPE = U
NORAD_CAT_ID   = 81969
ELEMENT_SET_NO = 999
REV_AT_EPOCH   = 44054
BSTAR          = .53569E-3
MEAN_MOTION_DOT = .8989E-4
MEAN_MOTION_DDOT = 0

CCSDS_OMM_VERS = 2.0
CREATION_DATE  = 
ORIGINATOR     = 

OBJECT_NAME    = UNKNOWN
OBJECT_ID      = 
CENTER_NAME    = EARTH
REF_FRAME      = TEME
TIME_SYSTEM    = UTC
MEAN_ELEMENT_THEORY = SGP/SGP4

EPOCH          = 2025-12-10T03:35:21.342912
MEAN_MOTION    = 14.03723059
ECCENTRICITY   = .0520276
INCLINATION    = 65.7453
RA_OF_ASC_NODE = 130.7933
ARG_OF_PERICENTER = 298.2965
MEAN_ANOMALY   = 56.6548

EPHEMERIS_TYPE = 0
CLASSIFICATION_TYPE = U
NORAD_CAT_ID   = 81995
ELEMENT_SET_NO = 999
REV_AT_EPOCH   = 60386
BSTAR          = .12355E-2
MEAN_MOTION_DOT = .656E-4
MEAN_MOTION_DDOT = 0

CCSDS_OMM_VERS = 2.0
CREATION_DATE  = 
ORIGINATOR     = 

OBJECT_NAME    = UNKNOWN
OBJECT_ID      = 
CENTER_NAME    = EARTH
REF_FRAME      = TEME
TIME_SYSTEM    = UTC
MEAN_ELEMENT_THEORY = SGP/SGP4

EPOCH          = 2025-12-15T08:58:24.789792
MEAN_MOTION    = 14.32571655
ECCENTRICITY   = .0232359
INCLINATION    = 97.9279
RA_OF_ASC_NODE = 137.8485
ARG_OF_PERICENTER = 75.6925
MEAN_ANOMALY   = 286.9939

EPHEMERIS_TYPE = 0
CLASSIFICATION_TYPE = U
NORAD_CAT_ID   = 82043
ELEMENT_SET_NO = 999
REV_AT_EPOCH   = 57422
BSTAR          = .39995E-3
MEAN_MOTION_DOT = .1422E-4
MEAN_MOTION_DDOT = 0

CCSDS_OMM_VERS = 2.0
CREATION_DATE  = 
ORIGINATOR     = 

OBJECT_NAME    = UNKNOWN
OBJECT_ID      = 
CENTER_NAME    = EARTH
REF_FRAME      = TEME
TIME_SYSTEM    = UTC
MEAN_ELEMENT_THEORY = SGP/SGP4

EPOCH          = 2025-12-14T12:08:54.026304
MEAN_MOTION    = 14.35926927
ECCENTRICITY   = .0092695
INCLINATION    = 98.7476
RA_OF_ASC_NODE = 74.0250
ARG_OF_PERICENTER = 253.8560
MEAN_ANOMALY   = 105.2407

EPHEMERIS_TYPE = 0
CLASSIFICATION_TYPE = U
NORAD_CAT_ID   = 82051
ELEMENT_SET_NO = 999
REV_AT_EPOCH   = 57266
BSTAR          = .22796E-2
MEAN_MOTION_DOT = .6904E-4
MEAN_MOTION_DDOT = 0

CCSDS_OMM_VERS = 2.0
CREATION_DATE  = 
ORIGINATOR     = 

OBJECT_NAME    = UNKNOWN
OBJECT_ID      = 
CENTER_NAME    = EARTH
REF_FRAME      = TEME
TIME_SYSTEM    = UTC
MEAN_ELEMENT_THEORY = SGP/SGP4

EPOCH          = 2025-12-15T04:27:25.604064
MEAN_MOTION    = 14.38848223
ECCENTRICITY   = .0206323
INCLINATION    = 97.7534
RA_OF_ASC_NODE = 65.0711
ARG_OF_PERICENTER = 280.2190
MEAN_ANOMALY   = 77.5791

EPHEMERIS_TYPE = 0
CLASSIFICATION_TYPE = U
NORAD_CAT_ID   = 82073
ELEMENT_SET_NO = 999
REV_AT_EPOCH   = 57547
BSTAR          = .53978E-3
MEAN_MOTION_DOT = .2083E-4
MEAN_MOTION_DDOT = 0

