UNKNOWN                 
1 81865U          25349.07737251  .00001435  00000+0  11751-2 0  9992
2 81865  82.8058  26.8822 0061289 359.2043  30.2996 13.88025475608872
UNKNOWN                 
1 81893U          25348.17445831  .00001450  00000+0  15241-2 0  9998
2 81893 100.0479 331.5612 0020302 266.0534  93.8293 13.76696546604272
UNKNOWN                 
1 81899U          25348.23909126  .00001871  00000+0  43785-2 0  9994
2 81899 102.4167  90.3138 0183870 210.4913 148.5400 13.20198406579185
UNKNOWN                 
1 81921U          25345.57587208  .00002225  00000+0  92469-3 0  9995
2 81921  65.7104  55.7774 0845027 115.0576 254.0563 13.15182287 25631
UNKNOWN                 
1 81946U          25342.79864878  .00000099  00000+0  49968-3 0  9997
2 81946  66.4150 160.2310 0672157 353.2715  27.8585 12.42574196547393
UNKNOWN                 
1 81947U          25348.77581075  .00007048  00000+0  67798-3 0  9999
2 81947  66.0730 162.5046 0376031 141.5331 221.3235 14.52683046631316
UNKNOWN                 
1 81964U          25347.74852951  .00000343  00000+0  30800-3 0  9993
2 81964  66.5847 256.2769 0029047  85.5245 274.9152 13.95796394614180
UNKNOWN                 
1 81969U          25349.19976526  .00008989  00000+0  53569-3 0  9995
2 81969  86.6895 152.3711 0004893 149.9199 210.2321 15.11047107440548
UNKNOWN                 
1 81995U          25344.14955258  .00006560  00000+0  12355-2 0  9993
2 81995  65.7453 130.7933 0520276 298.2965  56.6548 14.03723059603864
UNKNOWN                 
1 82043U          25349.37389803  .00001422  00000+0  39995-3 0  9997
2 82043  97.9279 137.8485 0232359  75.6925 286.9939 14.32571655574221
UNKNOWN                 
1 82051U          25348.50618086  .00006904  00000+0  22796-2 0  9998
2 82051  98.7476  74.0250 0092695 253.8560 105.2407 14.35926927572660
UNKNOWN                 
1 82073U          25349.18571301  .00002083  00000+0  53978-3 0  9996
2 82073  97.7534  65.0711 0206323 280.2190  77.5791 14.38848223575472
